[{"OBJECT_NAME":"STARLINK-35570","OBJECT_ID":"2025-236E","EPOCH":"2026-03-04T11:56:46.052736","MEAN_MOTION":15.30207388,"ECCENTRICITY":0.00010911,"INCLINATION":53.1605,"RA_OF_ASC_NODE":127.709,"ARG_OF_PERICENTER":67.8632,"MEAN_ANOMALY":292.2484,"EPHEMERIS_TYPE":0,"CLASSIFICATION_TYPE":"U","NORAD_CAT_ID":66090,"ELEMENT_SET_NO":999,"REV_AT_EPOCH":2215,"BSTAR":0.00042897585,"MEAN_MOTION_DOT":0.0001237,"MEAN_MOTION_DDOT":0},{"OBJECT_NAME":"STARLINK-35532","OBJECT_ID":"2025-236F","EPOCH":"2026-03-04T13:21:42.475104","MEAN_MOTION":15.30195643,"ECCENTRICITY":0.0001103,"INCLINATION":53.1591,"RA_OF_ASC_NODE":127.3653,"ARG_OF_PERICENTER":73.8591,"MEAN_ANOMALY":286.2531,"EPHEMERIS_TYPE":0,"CLASSIFICATION_TYPE":"U","NORAD_CAT_ID":66091,"ELEMENT_SET_NO":999,"REV_AT_EPOCH":2216,"BSTAR":0.00084576,"MEAN_MOTION_DOT":0.0002477,"MEAN_MOTION_DDOT":0},{"OBJECT_NAME":"STARLINK-35527","OBJECT_ID":"2025-236G","EPOCH":"2026-03-04T13:11:13.907328","MEAN_MOTION":15.30190972,"ECCENTRICITY":0.0001116,"INCLINATION":53.1587,"RA_OF_ASC_NODE":128.0314,"ARG_OF_PERICENTER":82.8177,"MEAN_ANOMALY":277.2951,"EPHEMERIS_TYPE":0,"CLASSIFICATION_TYPE":"U","NORAD_CAT_ID":66092,"ELEMENT_SET_NO":999,"REV_AT_EPOCH":2215,"BSTAR":0.00089221,"MEAN_MOTION_DOT":0.00026151,"MEAN_MOTION_DDOT":0},{"OBJECT_NAME":"STARLINK-35500","OBJECT_ID":"2025-236H","EPOCH":"2026-03-04T10:50:04.033248","MEAN_MOTION":15.30215056,"ECCENTRICITY":8.43e-5,"INCLINATION":53.1589,"RA_OF_ASC_NODE":128.13,"ARG_OF_PERICENTER":92.6362,"MEAN_ANOMALY":267.4735,"EPHEMERIS_TYPE":0,"CLASSIFICATION_TYPE":"U","NORAD_CAT_ID":66093,"ELEMENT_SET_NO":999,"REV_AT_EPOCH":2214,"BSTAR":0.00096080583,"MEAN_MOTION_DOT":0.00028218,"MEAN_MOTION_DDOT":0},{"OBJECT_NAME":"STARLINK-35528","OBJECT_ID":"2025-236J","EPOCH":"2026-03-04T10:40:57.450432","MEAN_MOTION":15.30194733,"ECCENTRICITY":0.00017061,"INCLINATION":53.1595,"RA_OF_ASC_NODE":128.0894,"ARG_OF_PERICENTER":83.3448,"MEAN_ANOMALY":276.7746,"EPHEMERIS_TYPE":0,"CLASSIFICATION_TYPE":"U","NORAD_CAT_ID":66094,"ELEMENT_SET_NO":999,"REV_AT_EPOCH":2214,"BSTAR":0.00049562004,"MEAN_MOTION_DOT":0.00014346,"MEAN_MOTION_DDOT":0},{"OBJECT_NAME":"STARLINK-35559","OBJECT_ID":"2025-236K","EPOCH":"2026-03-04T10:36:23.506272","MEAN_MOTION":15.30209764,"ECCENTRICITY":9.627e-5,"INCLINATION":53.1606,"RA_OF_ASC_NODE":128.07,"ARG_OF_PERICENTER":59.1186,"MEAN_ANOMALY":300.9909,"EPHEMERIS_TYPE":0,"CLASSIFICATION_TYPE":"U","NORAD_CAT_ID":66095,"ELEMENT_SET_NO":999,"REV_AT_EPOCH":2214,"BSTAR":0.0012681881,"MEAN_MOTION_DOT":0.00037401,"MEAN_MOTION_DDOT":0},{"OBJECT_NAME":"STARLINK-34386","OBJECT_ID":"2025-236L","EPOCH":"2026-03-04T10:27:16.680672","MEAN_MOTION":15.30192258,"ECCENTRICITY":9.473e-5,"INCLINATION":53.1603,"RA_OF_ASC_NODE":128.0293,"ARG_OF_PERICENTER":84.6966,"MEAN_ANOMALY":275.4143,"EPHEMERIS_TYPE":0,"CLASSIFICATION_TYPE":"U","NORAD_CAT_ID":66096,"ELEMENT_SET_NO":999,"REV_AT_EPOCH":2214,"BSTAR":0.00061073713,"MEAN_MOTION_DOT":0.00017768,"MEAN_MOTION_DDOT":0},{"OBJECT_NAME":"STARLINK-35613","OBJECT_ID":"2025-236M","EPOCH":"2026-03-04T10:39:25.937280","MEAN_MOTION":15.30205849,"ECCENTRICITY":0.00012039,"INCLINATION":53.1598,"RA_OF_ASC_NODE":128.0821,"ARG_OF_PERICENTER":86.2531,"MEAN_ANOMALY":273.8608,"EPHEMERIS_TYPE":0,"CLASSIFICATION_TYPE":"U","NORAD_CAT_ID":66097,"ELEMENT_SET_NO":999,"REV_AT_EPOCH":2214,"BSTAR":0.00088141679,"MEAN_MOTION_DOT":0.00025841,"MEAN_MOTION_DDOT":0},{"OBJECT_NAME":"STARLINK-34206","OBJECT_ID":"2025-236N","EPOCH":"2026-03-04T13:09:42.878016","MEAN_MOTION":15.30177265,"ECCENTRICITY":9.25e-5,"INCLINATION":53.1581,"RA_OF_ASC_NODE":128.0277,"ARG_OF_PERICENTER":74.6365,"MEAN_ANOMALY":285.4738,"EPHEMERIS_TYPE":0,"CLASSIFICATION_TYPE":"U","NORAD_CAT_ID":66098,"ELEMENT_SET_NO":999,"REV_AT_EPOCH":2214,"BSTAR":0.0009405,"MEAN_MOTION_DOT":0.0002758,"MEAN_MOTION_DDOT":0},{"OBJECT_NAME":"STARLINK-34460","OBJECT_ID":"2025-236P","EPOCH":"2026-03-04T11:52:12.732384","MEAN_MOTION":15.3019284,"ECCENTRICITY":0.00014205,"INCLINATION":53.1609,"RA_OF_ASC_NODE":127.6881,"ARG_OF_PERICENTER":60.6508,"MEAN_ANOMALY":299.4634,"EPHEMERIS_TYPE":0,"CLASSIFICATION_TYPE":"U","NORAD_CAT_ID":66099,"ELEMENT_SET_NO":999,"REV_AT_EPOCH":2215,"BSTAR":0.00086987182,"MEAN_MOTION_DOT":0.00025487,"MEAN_MOTION_DDOT":0},{"OBJECT_NAME":"STARLINK-35609","OBJECT_ID":"2025-236Q","EPOCH":"2026-03-04T14:39:12.494592","MEAN_MOTION":15.30191732,"ECCENTRICITY":9.23e-5,"INCLINATION":53.1568,"RA_OF_ASC_NODE":127.7019,"ARG_OF_PERICENTER":47.3088,"MEAN_ANOMALY":312.799,"EPHEMERIS_TYPE":0,"CLASSIFICATION_TYPE":"U","NORAD_CAT_ID":66100,"ELEMENT_SET_NO":999,"REV_AT_EPOCH":2210,"BSTAR":0.0010306,"MEAN_MOTION_DOT":0.00030281,"MEAN_MOTION_DDOT":0},{"OBJECT_NAME":"STARLINK-35595","OBJECT_ID":"2025-236R","EPOCH":"2026-03-04T09:52:29.097696","MEAN_MOTION":15.30174737,"ECCENTRICITY":8.984e-5,"INCLINATION":53.157,"RA_OF_ASC_NODE":128.5892,"ARG_OF_PERICENTER":92.5505,"MEAN_ANOMALY":267.5598,"EPHEMERIS_TYPE":0,"CLASSIFICATION_TYPE":"U","NORAD_CAT_ID":66101,"ELEMENT_SET_NO":999,"REV_AT_EPOCH":2207,"BSTAR":0.0010447579,"MEAN_MOTION_DOT":0.00030687,"MEAN_MOTION_DDOT":0},{"OBJECT_NAME":"STARLINK-35599","OBJECT_ID":"2025-236S","EPOCH":"2026-03-04T11:21:58.811040","MEAN_MOTION":15.30200794,"ECCENTRICITY":9.909e-5,"INCLINATION":53.1553,"RA_OF_ASC_NODE":128.2682,"ARG_OF_PERICENTER":75.7799,"MEAN_ANOMALY":284.3312,"EPHEMERIS_TYPE":0,"CLASSIFICATION_TYPE":"U","NORAD_CAT_ID":66102,"ELEMENT_SET_NO":999,"REV_AT_EPOCH":2208,"BSTAR":0.00067261593,"MEAN_MOTION_DOT":0.00019615,"MEAN_MOTION_DDOT":0},{"OBJECT_NAME":"STARLINK-35622","OBJECT_ID":"2025-236T","EPOCH":"2026-03-04T11:12:51.998400","MEAN_MOTION":15.30172974,"ECCENTRICITY":0.00016279,"INCLINATION":53.1582,"RA_OF_ASC_NODE":128.2311,"ARG_OF_PERICENTER":85.6052,"MEAN_ANOMALY":274.5134,"EPHEMERIS_TYPE":0,"CLASSIFICATION_TYPE":"U","NORAD_CAT_ID":66103,"ELEMENT_SET_NO":999,"REV_AT_EPOCH":2214,"BSTAR":0.00099849839,"MEAN_MOTION_DOT":0.00029306,"MEAN_MOTION_DDOT":0},{"OBJECT_NAME":"STARLINK-35452","OBJECT_ID":"2025-236U","EPOCH":"2026-03-04T11:17:25.329984","MEAN_MOTION":15.30195562,"ECCENTRICITY":0.00010968,"INCLINATION":53.1574,"RA_OF_ASC_NODE":128.2513,"ARG_OF_PERICENTER":97.8251,"MEAN_ANOMALY":262.2874,"EPHEMERIS_TYPE":0,"CLASSIFICATION_TYPE":"U","NORAD_CAT_ID":66104,"ELEMENT_SET_NO":999,"REV_AT_EPOCH":2214,"BSTAR":0.00095748442,"MEAN_MOTION_DOT":0.00028102,"MEAN_MOTION_DDOT":0},{"OBJECT_NAME":"STARLINK-35561","OBJECT_ID":"2025-236V","EPOCH":"2026-03-04T11:08:18.011040","MEAN_MOTION":15.30196245,"ECCENTRICITY":0.0001336,"INCLINATION":53.1579,"RA_OF_ASC_NODE":128.2061,"ARG_OF_PERICENTER":78.0285,"MEAN_ANOMALY":282.0865,"EPHEMERIS_TYPE":0,"CLASSIFICATION_TYPE":"U","NORAD_CAT_ID":66105,"ELEMENT_SET_NO":999,"REV_AT_EPOCH":2208,"BSTAR":0.0004577045,"MEAN_MOTION_DOT":0.00013219,"MEAN_MOTION_DDOT":0}]
