STARLINK-35570          
1 66090U 25236E   26063.49775524  .00012370  00000+0  42898-3 0  9995
2 66090  53.1605 127.7090 0001091  67.8632 292.2484 15.30207388 22150
STARLINK-35532          
1 66091U 25236F   26063.55674161  .00024770  00000+0  84576-3 0  9994
2 66091  53.1591 127.3653 0001103  73.8591 286.2531 15.30195643 22168
STARLINK-35527          
1 66092U 25236G   26063.54946652  .00026151  00000+0  89221-3 0  9998
2 66092  53.1587 128.0314 0001116  82.8177 277.2951 15.30190972 22155
STARLINK-35500          
1 66093U 25236H   26063.45143557  .00028218  00000+0  96081-3 0  9990
2 66093  53.1589 128.1300 0000843  92.6362 267.4735 15.30215056 22146
STARLINK-35528          
1 66094U 25236J   26063.44510938  .00014346  00000+0  49562-3 0  9990
2 66094  53.1595 128.0894 0001706  83.3448 276.7746 15.30194733 22145
STARLINK-35559          
1 66095U 25236K   26063.44193873  .00037401  00000+0  12682-2 0  9995
2 66095  53.1606 128.0700 0000962  59.1186 300.9909 15.30209764 22140
STARLINK-34386          
1 66096U 25236L   26063.43560973  .00017768  00000+0  61074-3 0  9998
2 66096  53.1603 128.0293 0000947  84.6966 275.4143 15.30192258 22142
STARLINK-35613          
1 66097U 25236M   26063.44405020  .00025841  00000+0  88142-3 0  9997
2 66097  53.1598 128.0821 0001203  86.2531 273.8608 15.30205849 22144
STARLINK-34206          
1 66098U 25236N   26063.54841294  .00027580  00000+0  94050-3 0  9993
2 66098  53.1581 128.0277 0000925  74.6365 285.4738 15.30177265 22141
STARLINK-34460          
1 66099U 25236P   26063.49459181  .00025487  00000+0  86987-3 0  9992
2 66099  53.1609 127.6881 0001420  60.6508 299.4634 15.30192840 22151
STARLINK-35609          
1 66100U 25236Q   26063.61056128  .00030281  00000+0  10306-2 0  9992
2 66100  53.1568 127.7019 0000923  47.3088 312.7990 15.30191732 22102
STARLINK-35595          
1 66101U 25236R   26063.41144789  .00030687  00000+0  10448-2 0  9999
2 66101  53.1570 128.5892 0000898  92.5505 267.5598 15.30174737 22074
STARLINK-35599          
1 66102U 25236S   26063.47359735  .00019615  00000+0  67262-3 0  9990
2 66102  53.1553 128.2682 0000990  75.7799 284.3312 15.30200794 22086
STARLINK-35622          
1 66103U 25236T   26063.46726850  .00029306  00000+0  99850-3 0  9992
2 66103  53.1582 128.2311 0001627  85.6052 274.5134 15.30172974 22146
STARLINK-35452          
1 66104U 25236U   26063.47043206  .00028102  00000+0  95748-3 0  9996
2 66104  53.1574 128.2513 0001096  97.8251 262.2874 15.30195562 22141
STARLINK-35561          
1 66105U 25236V   26063.46409735  .00013219  00000+0  45770-3 0  9992
2 66105  53.1579 128.2061 0001336  78.0285 282.0865 15.30196245 22082
